OBJECT_NAME,OBJECT_ID,EPOCH,MEAN_MOTION,ECCENTRICITY,INCLINATION,RA_OF_ASC_NODE,ARG_OF_PERICENTER,MEAN_ANOMALY,EPHEMERIS_TYPE,CLASSIFICATION_TYPE,NORAD_CAT_ID,ELEMENT_SET_NO,REV_AT_EPOCH,BSTAR,MEAN_MOTION_DOT,MEAN_MOTION_DDOT
SES-1,2010-016A,2026-06-11T14:28:31.924128,1.00270688,.000261,0.0242,305.8797,134.9254,295.2800,0,U,36516,999,5897,0,-.98E-6,0
ASTRA 3B,2010-021A,2026-06-11T15:04:06.335040,1.00268335,.0004133,1.4562,83.6228,359.2342,66.6566,0,U,36581,999,5881,0,.153E-5,0
COMSATBW-2,2010-021B,2026-06-11T16:43:47.159040,1.00270692,.0002569,0.0310,51.3134,44.4986,68.3598,0,U,36582,999,5890,0,.105E-5,0
BEIDOU-2 G3,2010-024A,2026-06-11T20:28:06.267648,1.00272061,.0008105,4.5018,61.5385,351.8385,233.5486,0,U,36590,999,5871,0,-.123E-5,0
BADR-5,2010-025A,2026-06-11T15:06:06.143328,1.00267221,.0003162,0.0713,110.4482,83.0232,323.5253,0,U,36592,999,5316,0,.17E-5,0
COMS 1,2010-032A,2026-06-03T23:47:39.107040,1.00270643,.0001016,4.7750,75.5286,4.5847,297.3769,0,U,36744,999,5095,0,-.334E-5,0
ARABSAT-5A,2010-032B,2026-06-11T15:06:06.143328,1.00271328,.0005616,0.0794,55.8137,44.7335,56.4182,0,U,36745,999,5859,0,.17E-5,0
ECHOSTAR 15,2010-034A,2026-06-11T16:06:05.772960,1.00271796,.0001639,0.0219,44.5930,41.2202,296.9135,0,U,36792,999,5826,0,.16E-6,0
BEIDOU-2 IGSO-1,2010-036A,2026-06-11T15:38:38.762592,1.00273705,.0059183,54.3019,163.0102,225.0933,214.2172,0,U,36828,999,5804,0,-.28E-6,0
NILESAT 201,2010-037A,2026-06-11T16:38:02.709024,1.00271776,.0004375,0.0447,143.8086,327.0009,31.7519,0,U,36830,999,5832,0,-.41E-6,0
RASCOM-QAF 1R,2010-037B,2026-06-11T16:40:54.935328,1.00271495,.0006775,0.0088,45.2991,31.5393,76.3136,0,U,36831,999,5825,0,.35E-6,0
AEHF-1 (USA 214),2010-039A,2026-06-11T20:13:58.337184,1.00271980,.0003874,8.2053,68.1177,6.8600,158.6179,0,U,36868,999,5360,0,.158E-5,0
XM-5,2010-053A,2026-06-11T14:24:32.308416,1.00272357,.0002924,0.0626,274.0505,282.8150,164.0155,0,U,37185,999,5742,0,-.6E-7,0
BSAT-3B,2010-056B,2026-06-11T20:56:48.566976,1.00270089,.0001455,0.0740,248.1583,302.1817,133.9310,0,U,37207,999,5204,0,-.334E-5,0
BEIDOU-2 G4,2010-057A,2026-06-11T15:43:00.488064,1.00271489,.0005032,3.6319,68.9819,198.2748,28.5076,0,U,37210,999,5723,0,-.98E-6,0
SKYTERRA 1,2010-061A,2026-06-11T16:11:05.294976,1.00271279,.0002316,5.1127,50.8582,6.7006,343.8872,0,U,37218,999,5713,0,-.105E-5,0
HYLAS 1,2010-065A,2026-06-10T22:17:39.521760,1.00273154,.00008998,5.6269,73.0945,311.3587,223.0577,0,U,37237,999,682,0,.105E-5,0
INTELSAT 17 (IS-17),2010-065B,2026-06-11T17:43:53.163264,1.00270723,.0002582,0.0008,62.4922,25.6207,143.9353,0,U,37238,999,5319,0,.15E-6,0
BEIDOU-2 IGSO-2,2010-068A,2026-06-10T16:33:25.834176,1.00285724,.00555234,47.5603,271.9154,212.3969,130.7661,0,U,37256,999,5672,0,-.227E-5,0
EUTELSAT KA-SAT 9A,2010-069A,2026-06-10T23:35:36.631104,1.00271507,.00039365,0.0610,10.3856,122.2918,129.5710,0,U,37258,999,4394,0,.79E-6,0
HISPASAT 30W-5,2010-070A,2026-06-11T16:31:25.845312,1.00268293,.0005167,0.0459,138.1444,326.0378,13.6901,0,U,37264,999,5313,0,-.2E-5,0
KOREASAT 6,2010-070B,2026-06-11T15:17:38.524416,1.00270871,.0002001,0.0017,355.8636,95.2397,198.1797,0,U,37265,999,5671,0,-.95E-6,0
BEIDOU-2 IGSO-3,2011-013A,2026-06-10T17:11:36.843360,1.00268972,.0034354,62.3981,40.2143,184.2630,40.3873,0,U,37384,999,5559,0,-.195E-5,0
INTELSAT 28 (IS-28),2011-016A,2026-06-11T16:31:03.381312,1.00271188,.0003661,1.7912,82.6858,3.0792,30.3264,0,U,37392,999,5323,0,-.209E-5,0
YAHSAT 1A,2011-016B,2026-06-11T20:20:20.226048,1.00266287,.000262,0.0205,352.6204,105.7064,159.4201,0,U,37393,999,4235,0,0,0
SBIRS GEO-1 (USA 230),2011-019A,2026-06-11T17:44:05.781120,1.00272581,.0002133,4.5246,53.1307,19.0870,145.6822,0,U,37481,999,5534,0,.113E-5,0
TELSTAR 14R,2011-021A,2026-06-11T19:47:27.153312,1.00269718,.0002192,0.0018,351.3908,66.6398,76.0000,0,U,37602,999,5578,0,-.263E-5,0
GSAT-8,2011-022A,2026-06-11T16:55:41.642976,1.00271749,.0002318,2.1162,81.8867,206.1396,281.0128,0,U,37605,999,5316,0,.1E-5,0
ST-2,2011-022B,2026-06-11T17:33:27.010368,1.00267416,.0001542,0.0173,311.4694,145.9457,154.0079,0,U,37606,999,5522,0,-.194E-5,0
ZHONGXING-10,2011-026A,2026-06-11T22:02:33.393120,1.00269592,.0003435,1.0318,84.2828,2.0460,230.0840,0,U,37677,999,5494,0,-.172E-5,0
SES-3,2011-035A,2026-06-11T14:28:01.971840,1.00273277,.0002382,1.3116,83.1445,351.4263,299.3759,0,U,37748,999,5453,0,-.86E-6,0
KAZSAT-2,2011-035B,2026-06-11T20:20:08.867040,1.00270958,.0001104,0.0315,247.3164,273.4801,130.9251,0,U,37749,999,5334,0,-.181E-5,0
