SES-1                   
1 36516U 10016A   26162.60314727 -.00000098  00000+0  00000+0 0  9992
2 36516   0.0242 305.8797 0002610 134.9254 295.2800  1.00270688 58974
ASTRA 3B                
1 36581U 10021A   26162.62785110  .00000153  00000+0  00000+0 0  9991
2 36581   1.4562  83.6228 0004133 359.2342  66.6566  1.00268335 58816
COMSATBW-2              
1 36582U 10021B   26162.69707360  .00000105  00000+0  00000+0 0  9997
2 36582   0.0310  51.3134 0002569  44.4986  68.3598  1.00270692 58902
BEIDOU-2 G3             
1 36590U 10024A   26162.85285032 -.00000123  00000+0  00000+0 0  9995
2 36590   4.5018  61.5385 0008105 351.8385 233.5486  1.00272061 58719
BADR-5                  
1 36592U 10025A   26162.62923777  .00000170  00000+0  00000+0 0  9999
2 36592   0.0713 110.4482 0003162  83.0232 323.5253  1.00267221 53167
COMS 1                  
1 36744U 10032A   26154.99142485 -.00000334  00000+0  00000+0 0  9999
2 36744   4.7750  75.5286 0001016   4.5847 297.3769  1.00270643 50953
ARABSAT-5A              
1 36745U 10032B   26162.62923777  .00000170  00000+0  00000+0 0  9997
2 36745   0.0794  55.8137 0005616  44.7335  56.4182  1.00271328 58597
ECHOSTAR 15             
1 36792U 10034A   26162.67090015  .00000016  00000+0  00000+0 0  9995
2 36792   0.0219  44.5930 0001639  41.2202 296.9135  1.00271796 58265
BEIDOU-2 IGSO-1         
1 36828U 10036A   26162.65183753 -.00000028  00000+0  00000+0 0  9991
2 36828  54.3019 163.0102 0059183 225.0933 214.2172  1.00273705 58045
NILESAT 201             
1 36830U 10037A   26162.69308691 -.00000041  00000+0  00000+0 0  9994
2 36830   0.0447 143.8086 0004375 327.0009  31.7519  1.00271776 58322
RASCOM-QAF 1R           
1 36831U 10037B   26162.69508027  .00000035  00000+0  00000+0 0  9992
2 36831   0.0088  45.2991 0006775  31.5393  76.3136  1.00271495 58253
AEHF-1 (USA 214)        
1 36868U 10039A   26162.84303631  .00000158  00000+0  00000+0 0  9991
2 36868   8.2053  68.1177 0003874   6.8600 158.6179  1.00271980 53602
XM-5                    
1 37185U 10053A   26162.60037394 -.00000006  00000+0  00000+0 0  9997
2 37185   0.0626 274.0505 0002924 282.8150 164.0155  1.00272357 57423
BSAT-3B                 
1 37207U 10056B   26162.87278434 -.00000334  00000+0  00000+0 0  9990
2 37207   0.0740 248.1583 0001455 302.1817 133.9310  1.00270089 52048
BEIDOU-2 G4             
1 37210U 10057A   26162.65486676 -.00000098  00000+0  00000+0 0  9997
2 37210   3.6319  68.9819 0005032 198.2748  28.5076  1.00271489 57234
SKYTERRA 1              
1 37218U 10061A   26162.67436684 -.00000105  00000+0  00000+0 0  9995
2 37218   5.1127  50.8582 0002316   6.7006 343.8872  1.00271279 57138
HYLAS 1                 
1 37237U 10065A   26161.92892965  .00000105  00000+0  00000+0 0  9994
2 37237   5.6269  73.0945 0000899 311.3587 223.0577  1.00273154  6829
INTELSAT 17 (IS-17)     
1 37238U 10065B   26162.73880976  .00000015  00000+0  00000+0 0  9994
2 37238   0.0008  62.4922 0002582  25.6207 143.9353  1.00270723 53195
BEIDOU-2 IGSO-2         
1 37256U 10068A   26161.68988234 -.00000227  00000+0  00000+0 0  9992
2 37256  47.5603 271.9154 0055523 212.3969 130.7661  1.00285724 56724
EUTELSAT KA-SAT 9A      
1 37258U 10069A   26161.98306286  .00000079  00000+0  00000+0 0  9993
2 37258   0.0610  10.3856 0003936 122.2918 129.5710  1.00271507 43941
HISPASAT 30W-5          
1 37264U 10070A   26162.68849358 -.00000200  00000+0  00000+0 0  9999
2 37264   0.0459 138.1444 0005167 326.0378  13.6901  1.00268293 53138
KOREASAT 6              
1 37265U 10070B   26162.63725144 -.00000095  00000+0  00000+0 0  9993
2 37265   0.0017 355.8636 0002001  95.2397 198.1797  1.00270871 56714
BEIDOU-2 IGSO-3         
1 37384U 11013A   26161.71639865 -.00000195  00000+0  00000+0 0  9996
2 37384  62.3981  40.2143 0034354 184.2630  40.3873  1.00268972 55597
INTELSAT 28 (IS-28)     
1 37392U 11016A   26162.68823358 -.00000209  00000+0  00000+0 0  9993
2 37392   1.7912  82.6858 0003661   3.0792  30.3264  1.00271188 53239
YAHSAT 1A               
1 37393U 11016B   26162.84745632  .00000000  00000+0  00000+0 0  9998
2 37393   0.0205 352.6204 0002620 105.7064 159.4201  1.00266287 42357
SBIRS GEO-1 (USA 230)   
1 37481U 11019A   26162.73895580  .00000113  00000+0  00000+0 0  9990
2 37481   4.5246  53.1307 0002133  19.0870 145.6822  1.00272581 55340
TELSTAR 14R             
1 37602U 11021A   26162.82461983 -.00000263  00000+0  00000+0 0  9991
2 37602   0.0018 351.3908 0002192  66.6398  76.0000  1.00269718 55782
GSAT-8                  
1 37605U 11022A   26162.70534309  .00000100  00000+0  00000+0 0  9994
2 37605   2.1162  81.8867 0002318 206.1396 281.0128  1.00271749 53162
ST-2                    
1 37606U 11022B   26162.73156262 -.00000194  00000+0  00000+0 0  9990
2 37606   0.0173 311.4694 0001542 145.9457 154.0079  1.00267416 55227
ZHONGXING-10            
1 37677U 11026A   26162.91844205 -.00000172  00000+0  00000+0 0  9999
2 37677   1.0318  84.2828 0003435   2.0460 230.0840  1.00269592 54947
SES-3                   
1 37748U 11035A   26162.60280060 -.00000086  00000+0  00000+0 0  9991
2 37748   1.3116  83.1445 0002382 351.4263 299.3759  1.00273277 54537
KAZSAT-2                
1 37749U 11035B   26162.84732485 -.00000181  00000+0  00000+0 0  9997
2 37749   0.0315 247.3164 0001104 273.4801 130.9251  1.00270958 53347
